raan_deg,tle1,tle2,plane_id
353.7634,1 62368U 24245D   25283.19441813  .00000262  00000-0  26798-3 0  9998,2 62368  44.9861 353.7634 0009756 266.8009  93.1707 13.99057066 41332,4
353.8666,1 62367U 24245C   25283.21046174  .00000236  00000-0  25011-3 0  9999,2 62367  44.9867 353.8666 0011521 258.8122 101.1415 13.99068071 41337,4
353.8715,1 62366U 24245B   25283.22864968  .00000228  00000-0  24486-3 0  9994,2 62366  44.9810 353.8715 0005823 268.3847  91.6318 13.99063901 41328,4
